ONEWEB-0311             
1 49097U 21075Y   25344.47033393  .00000200  00000+0  48073-3 0  9990
2 49097  87.9118  43.3785 0001707 112.6116 247.5196 13.17649182208778
ONEWEB-0312             
1 49098U 21075Z   25344.63739323  .00000074  00000+0  15753-3 0  9993
2 49098  87.9110  43.3713 0001385 105.2500 254.8784 13.17650338208778
ONEWEB-0313             
1 49099U 21075AA  25344.56638096  .00000042  00000+0  75623-4 0  9999
2 49099  87.9109  43.3930 0001692 104.2090 255.9229 13.17652275208758
ONEWEB-0314             
1 49100U 21075AB  25344.45683224  .00000057  00000+0  11332-3 0  9995
2 49100  87.9126  43.3670 0001382 107.9851 252.1431 13.17649750208716
ONEWEB-0315             
1 49101U 21075AC  25344.59864946  .00003026  00000+0  83749-2 0  9992
2 49101  87.8938  28.1030 0001867 112.4186 247.7140 13.12428737210432
ONEWEB-0316             
1 49102U 21075AD  25344.37814296 -.00000057  00000+0 -17746-3 0  9990
2 49102  87.9182  12.9668 0001748  97.5101 262.6230 13.18685579212322
ONEWEB-0317             
1 49103U 21075AE  25344.59217109  .00000231  00000+0  60575-3 0  9995
2 49103  87.8942  28.1220 0001812  72.9873 287.1454 13.12441121210453
ONEWEB-0318             
1 49104U 21075AF  25344.52659424  .00000074  00000+0  15448-3 0  9993
2 49104  87.9182  12.9247 0001715 104.0050 256.1273 13.18685906212305
